NORAD_CAT_ID,OBJECT_NAME,OBJECT_TYPE,EPOCH,MEAN_MOTION,ECCENTRICITY,INCLINATION,RA_OF_ASC_NODE,ARG_OF_PERICENTER,MEAN_ANOMALY,BSTAR,MEAN_MOTION_DOT,MEAN_MOTION_DDOT,TLE_LINE0,TLE_LINE1,TLE_LINE2,SEMIMAJOR_AXIS,PERIOD,APOGEE,PERIGEE,DECAYED
56472.0,STARLINK-5038,PAYLOAD,2024-06-20 14:12:24,14.98330335,0.000313,69.9998,265.6911,269.1471,90.933,1.8612e-05,1.29e-06,0.0,0 STARLINK-5038,1 56472U 23064AA  24172.59195251  .00000129  00000-0  18612-4 0  9996,2 56472  69.9998 265.6911 0003130 269.1471  90.9330 14.98330335 61801,6950.192,96.107,574.232,569.881,0.0
56472.0,STARLINK-5038,PAYLOAD,2024-06-20 15:48:32,14.98331012,0.0003125,69.9998,265.5228,269.28,90.8001,2.5718e-05,2.14e-06,0.0,0 STARLINK-5038,1 56472U 23064AA  24172.65871188  .00000214  00000-0  25718-4 0  9993,2 56472  69.9998 265.5228 0003125 269.2800  90.8001 14.98331012 62170,6950.19,96.107,574.227,569.883,0.0
56472.0,STARLINK-5038,PAYLOAD,2024-06-21 14:14:25,14.98332358,0.0003243,69.9997,263.166,270.073,90.0057,8.3735e-05,9.06e-06,0.0,0 STARLINK-5038,1 56472U 23064AA  24173.59334981  .00000906  00000-0  83735-4 0  9993,2 56472  69.9997 263.1660 0003243 270.0730  90.0057 14.98332358 61958,6950.186,96.107,574.305,569.797,0.0
56472.0,STARLINK-5038,PAYLOAD,2024-06-21 15:50:33,14.98333599,0.0003243,69.9998,262.9977,270.1844,89.8943,9.6258e-05,1.056e-05,0.0,0 STARLINK-5038,1 56472U 23064AA  24173.66010866  .00001056  00000-0  96258-4 0  9995,2 56472  69.9998 262.9977 0003243 270.1844  89.8943 14.98333599 62324,6950.182,96.107,574.301,569.793,0.0
56472.0,STARLINK-5038,PAYLOAD,2024-06-22 14:16:26,14.98331491,0.0003248,69.9999,260.6413,270.2975,89.7812,5.1858e-05,5.26e-06,0.0,0 STARLINK-5038,1 56472U 23064AA  24174.59475055  .00000526  00000-0  51858-4 0  9991,2 56472  69.9999 260.6413 0003248 270.2975  89.7812 14.98331491 62105,6950.188,96.107,574.311,569.796,0.0
56472.0,STARLINK-5038,PAYLOAD,2024-06-22 15:52:34,14.98332113,0.0003248,69.9999,260.4731,270.3759,89.7028,5.7369e-05,5.92e-06,0.0,0 STARLINK-5038,1 56472U 23064AA  24174.66150997  .00000592  00000-0  57369-4 0  9990,2 56472  69.9999 260.4731 0003248 270.3759  89.7028 14.98332113 62478,6950.186,96.107,574.309,569.794,0.0
56472.0,STARLINK-5038,PAYLOAD,2024-06-23 14:18:27,14.98332691,0.0003127,70.0002,258.1179,264.4212,95.659,3.0302e-05,2.69e-06,0.0,0 STARLINK-5038,1 56472U 23064AA  24175.59614924  .00000269  00000-0  30302-4 0  9997,2 56472  70.0002 258.1179 0003127 264.4212  95.6590 14.98332691 62257,6950.185,96.107,574.223,569.876,0.0
56472.0,STARLINK-5038,PAYLOAD,2024-06-23 15:54:35,14.9833263,0.0003148,70.0001,257.9492,267.3346,92.7453,2.9916e-05,2.64e-06,0.0,0 STARLINK-5038,1 56472U 23064AA  24175.66290936  .00000264  00000-0  29916-4 0  9992,2 56472  70.0001 257.9492 0003148 267.3346  92.7453 14.98332630 62624,6950.185,96.107,574.238,569.862,0.0
56472.0,STARLINK-5038,PAYLOAD,2024-06-24 14:20:27,14.98335996,0.0003213,69.9999,255.5912,273.9364,86.1427,9.4467e-05,1.034e-05,0.0,0 STARLINK-5038,1 56472U 23064AA  24176.59754343  .00001034  00000-0  94467-4 0  9991,2 56472  69.9999 255.5912 0003213 273.9364  86.1427 14.98335996 62406,6950.174,96.107,574.272,569.806,0.0
56472.0,STARLINK-5038,PAYLOAD,2024-06-25 12:46:21,14.98328156,0.0003244,69.9996,253.2347,270.1494,89.9293,-3.0359e-06,-1.29e-06,0.0,0 STARLINK-5038,1 56472U 23064AA  24177.53218917 -.00000129  00000-0 -30359-5 0  9995,2 56472  69.9996 253.2347 0003244 270.1494  89.9293 14.98328156 62904,6950.199,96.107,574.318,569.809,0.0
56472.0,STARLINK-5038,PAYLOAD,2024-06-25 14:22:29,14.98328882,0.0003239,69.9997,253.0665,270.2087,89.8701,4.2202e-06,-4.3e-07,0.0,0 STARLINK-5038,1 56472U 23064AA  24177.59894850 -.00000043  00000-0  42202-5 0  9991,2 56472  69.9997 253.0665 0003239 270.2087  89.8701 14.98328882 62559,6950.196,96.107,574.313,569.81,0.0
56472.0,STARLINK-5038,PAYLOAD,2024-06-26 11:12:13,14.98330317,0.0003341,69.9994,250.8777,268.7247,91.3529,-3.0379e-05,-4.56e-06,0.0,0 STARLINK-5038,1 56472U 23064AA  24178.46682780 -.00000456  00000-0 -30379-4 0  9995,2 56472  69.9994 250.8777 0003341 268.7247  91.3529 14.98330317 62685,6950.192,96.107,574.379,569.735,0.0
56472.0,STARLINK-5038,PAYLOAD,2024-06-27 04:49:42,14.98331162,0.000338,69.9992,249.0274,265.4469,94.6304,7.7586e-05,8.33e-06,0.0,0 STARLINK-5038,1 56472U 23064AA  24179.20118403  .00000833  00000-0  77586-4 0  9992,2 56472  69.9992 249.0274 0003380 265.4469  94.6304 14.98331162 63157,6950.189,96.107,574.403,569.705,0.0
56472.0,STARLINK-5038,PAYLOAD,2024-06-27 14:26:30,14.98333164,0.0003403,69.9992,248.0172,269.6769,90.4,0.00010197,1.124e-05,0.0,0 STARLINK-5038,1 56472U 23064AA  24179.60174256  .00001124  00000-0  10197-3 0  9992,2 56472  69.9992 248.0172 0003403 269.6769  90.4000 14.98333164 62855,6950.183,96.107,574.413,569.683,0.0
56472.0,STARLINK-5038,PAYLOAD,2024-06-28 04:51:43,14.98327645,0.0003358,69.9993,246.5024,269.3288,90.7487,8.0838e-05,8.72e-06,0.0,0 STARLINK-5038,1 56472U 23064AA  24180.20258691  .00000872  00000-0  80838-4 0  9995,2 56472  69.9993 246.5024 0003358 269.3288  90.7487 14.98327645 63307,6950.2,96.107,574.399,569.731,0.0
56472.0,STARLINK-5038,PAYLOAD,2024-06-28 14:28:31,14.98337711,0.0003381,69.9991,245.4915,270.1213,89.9559,0.00013523,1.521e-05,0.0,0 STARLINK-5038,1 56472U 23064AA  24180.60313937  .00001521  00000-0  13523-3 0  9992,2 56472  69.9991 245.4915 0003381 270.1213  89.9559 14.98337711 63008,6950.169,96.107,574.384,569.684,0.0
56472.0,STARLINK-5038,PAYLOAD,2024-06-29 04:53:42,14.98349688,0.0003411,69.9989,243.9765,270.3942,89.6826,0.00020608,2.368e-05,0.0,0 STARLINK-5038,1 56472U 23064AA  24181.20396622  .00002368  00000-0  20608-3 0  9993,2 56472  69.9989 243.9765 0003411 270.3942  89.6826 14.98349688 63455,6950.132,96.106,574.368,569.626,0.0
56472.0,STARLINK-5038,PAYLOAD,2024-06-29 14:30:30,14.98357622,0.0003402,70.0,242.9668,270.2124,89.8645,0.00041222,4.832e-05,0.0,0 STARLINK-5038,1 56472U 23064AA  24181.60452226  .00004832  00000-0  41222-3 0  9993,2 56472  70.0000 242.9668 0003402 270.2124  89.8645 14.98357622 63159,6950.107,96.105,574.337,569.608,0.0
56472.0,STARLINK-5038,PAYLOAD,2024-06-29 20:55:03,14.9833577,0.0003345,70.0001,242.2935,274.8831,85.1946,-6.2624e-06,-1.68e-06,0.0,0 STARLINK-5038,1 56472U 23064AA  24181.87157238 -.00000168  00000-0 -62624-5 0  9998,2 56472  70.0001 242.2935 0003345 274.8831  85.1946 14.98335770 63198,6950.175,96.107,574.365,569.715,0.0
56472.0,STARLINK-5038,PAYLOAD,2024-06-30 04:55:44,14.98329091,0.0002944,70.0011,241.4526,277.2567,82.8258,-0.00021483,-2.655e-05,0.0,0 STARLINK-5038,1 56472U 23064AA  24182.20537488 -.00002655  00000-0 -21483-3 0  9994,2 56472  70.0011 241.4526 0002944 277.2567  82.8258 14.98329091 63608,6950.196,96.107,574.107,570.015,0.0
56472.0,STARLINK-5038,PAYLOAD,2024-06-30 12:56:25,14.98313249,0.0003206,70.0011,240.6127,268.6391,91.4401,-0.00062108,-7.493e-05,0.0,0 STARLINK-5038,1 56472U 23064AA  24182.53918004 -.00007493  00000-0 -62108-3 0  9991,2 56472  70.0011 240.6127 0003206 268.6391  91.4401 14.98313249 63296,6950.245,96.108,574.338,569.881,0.0
56472.0,STARLINK-5038,PAYLOAD,2024-06-30 20:57:05,14.98320375,0.0003385,70.0006,239.7703,270.4813,89.5958,-0.00023956,-2.95e-05,0.0,0 STARLINK-5038,1 56472U 23064AA  24182.87298187 -.00002950  00000-0 -23956-3 0  9992,2 56472  70.0006 239.7703 0003385 270.4813  89.5958 14.98320375 63706,6950.223,96.108,574.44,569.735,0.0
56472.0,STARLINK-5038,PAYLOAD,2024-07-01 12:58:26,14.98325716,0.0003589,70.0003,238.0855,274.4377,85.6372,0.00087135,0.00010318,0.0,0 STARLINK-5038,1 56472U 23064AA  24183.54058830  .00010318  00000-0  87135-3 0  9990,2 56472  70.0003 238.0855 0003589 274.4377  85.6372 14.98325716 63440,6950.206,96.107,574.566,569.577,0.0
56472.0,STARLINK-5038,PAYLOAD,2024-07-02 04:59:47,14.98336159,0.0003585,70.0004,236.4023,273.9137,86.1613,0.00065586,7.743e-05,0.0,0 STARLINK-5038,1 56472U 23064AA  24184.20818758  .00007743  00000-0  65586-3 0  9991,2 56472  70.0004 236.4023 0003585 273.9137  86.1613 14.98336159 63902,6950.174,96.107,574.53,569.547,0.0
56472.0,STARLINK-5038,PAYLOAD,2024-07-02 13:00:27,14.98341685,0.0003639,70.0003,235.5605,274.1293,85.945,0.00067825,8.012e-05,0.0,0 STARLINK-5038,1 56472U 23064AA  24184.54198555  .00008012  00000-0  67825-3 0  9992,2 56472  70.0003 235.5605 0003639 274.1293  85.9450 14.98341685 63594,6950.157,96.106,574.551,569.493,0.0
56472.0,STARLINK-5038,PAYLOAD,2024-07-03 05:01:48,14.98332754,0.000356,70.0006,233.8773,273.542,86.5331,8.2138e-05,8.87e-06,0.0,0 STARLINK-5038,1 56472U 23064AA  24185.20958574  .00000887  00000-0  82138-4 0  9998,2 56472  70.0006 233.8773 0003560 273.5420  86.5331 14.98332754 64056,6950.184,96.107,574.524,569.575,0.0
56472.0,STARLINK-5038,PAYLOAD,2024-07-03 21:03:08,14.98334669,0.0003545,70.0002,232.1935,272.5234,87.5519,0.00013635,1.534e-05,0.0,0 STARLINK-5038,1 56472U 23064AA  24185.87718497  .00001534  00000-0  13635-3 0  9994,2 56472  70.0002 232.1935 0003545 272.5234  87.5519 14.98334669 63795,6950.178,96.107,574.507,569.58,0.0
56472.0,STARLINK-5038,PAYLOAD,2024-07-04 05:03:48,14.98336501,0.0003558,69.9997,231.3518,272.5054,87.5698,0.00011652,1.298e-05,0.0,0 STARLINK-5038,1 56472U 23064AA  24186.21098316  .00001298  00000-0  11652-3 0  9998,2 56472  69.9997 231.3518 0003558 272.5054  87.5698 14.98336501 64209,6950.173,96.107,574.511,569.565,0.0
56472.0,STARLINK-5038,PAYLOAD,2024-07-04 13:04:29,14.98337872,0.000359,69.9985,230.5104,272.1873,87.8875,0.00011163,1.239e-05,0.0,0 STARLINK-5038,1 56472U 23064AA  24186.54478101  .00001239  00000-0  11163-3 0  9990,2 56472  69.9985 230.5104 0003590 272.1873  87.8875 14.98337872 63895,6950.169,96.106,574.529,569.538,0.0
56472.0,STARLINK-5038,PAYLOAD,2024-07-05 05:05:49,14.98333065,0.0003647,69.9984,228.8272,271.5979,88.4762,0.0001264,1.416e-05,0.0,0 STARLINK-5038,1 56472U 23064AA  24187.21238239  .00001416  00000-0  12640-3 0  9999,2 56472  69.9984 228.8272 0003647 271.5979  88.4762 14.98333065 64357,6950.183,96.107,574.583,569.514,0.0
